[
    {
        "Altitude(m)": 605470.7799072003,
        "Argument of Periapsis(deg)": 0.0,
        "Eccentricity": 0.0,
        "Inclination(deg)": 60.0,
        "Latitude(deg)": 27.98817338239016,
        "Longitude(deg)": 162.26299189171561,
        "Mean Anomaly(deg)": 147.2727,
        "RAAN(deg)": 100.0,
        "Satellite Name": "Test1 449",
        "Satellite Number": 449,
        "Semi-Major Axis(m)": 6980739.136638005,
        "Time(s)": 0
    },
    {
        "Altitude(m)": 605395.8177552216,
        "Argument of Periapsis(deg)": 0.00010418945913296404,
        "Eccentricity": 0.0,
        "Inclination(deg)": 60.0,
        "Latitude(deg)": 27.4738635513878,
        "Longitude(deg)": 162.61617859835889,
        "Mean Anomaly(deg)": 147.8928061454618,
        "RAAN(deg)": 99.99957995086025,
        "Satellite Name": "Test1 449",
        "Satellite Number": 449,
        "Semi-Major Axis(m)": 6980739.136638005,
        "Time(s)": 10
    }
]